[{"OBJECT_NAME":"ONEWEB-0341","OBJECT_ID":"2021-083X","EPOCH":"2026-04-03T06:00:52.812000","MEAN_MOTION":13.18689982,"ECCENTRICITY":0.0001807,"INCLINATION":87.9231,"RA_OF_ASC_NODE":350.3567,"ARG_OF_PERICENTER":64.6275,"MEAN_ANOMALY":295.5044,"EPHEMERIS_TYPE":0,"CLASSIFICATION_TYPE":"U","NORAD_CAT_ID":49207,"ELEMENT_SET_NO":999,"REV_AT_EPOCH":22011,"BSTAR":0.00039600999999999997,"MEAN_MOTION_DOT":1.69e-06,"MEAN_MOTION_DDOT":0.0},{"OBJECT_NAME":"ONEWEB-0342","OBJECT_ID":"2021-083Y","EPOCH":"2026-04-03T01:10:01.321824","MEAN_MOTION":13.2077147,"ECCENTRICITY":0.0001821,"INCLINATION":87.9141,"RA_OF_ASC_NODE":289.439,"ARG_OF_PERICENTER":88.7541,"MEAN_ANOMALY":271.3801,"EPHEMERIS_TYPE":0,"CLASSIFICATION_TYPE":"U","NORAD_CAT_ID":49208,"ELEMENT_SET_NO":999,"REV_AT_EPOCH":22686,"BSTAR":0.00027393000000000003,"MEAN_MOTION_DOT":1.24e-06,"MEAN_MOTION_DDOT":0.0},{"OBJECT_NAME":"ONEWEB-0343","OBJECT_ID":"2021-083Z","EPOCH":"2026-04-03T06:12:47.018592","MEAN_MOTION":13.1868581,"ECCENTRICITY":0.000208,"INCLINATION":87.9238,"RA_OF_ASC_NODE":350.3501,"ARG_OF_PERICENTER":67.1214,"MEAN_ANOMALY":293.0137,"EPHEMERIS_TYPE":0,"CLASSIFICATION_TYPE":"U","NORAD_CAT_ID":49209,"ELEMENT_SET_NO":999,"REV_AT_EPOCH":22016,"BSTAR":0.00028027,"MEAN_MOTION_DOT":1.23e-06,"MEAN_MOTION_DDOT":0.0},{"OBJECT_NAME":"ONEWEB-0344","OBJECT_ID":"2021-083AA","EPOCH":"2026-04-03T03:51:58.271040","MEAN_MOTION":13.13470197,"ECCENTRICITY":0.000168,"INCLINATION":87.8995,"RA_OF_ASC_NODE":335.1861,"ARG_OF_PERICENTER":68.1265,"MEAN_ANOMALY":292.0042,"EPHEMERIS_TYPE":0,"CLASSIFICATION_TYPE":"U","NORAD_CAT_ID":49210,"ELEMENT_SET_NO":999,"REV_AT_EPOCH":22104,"BSTAR":-0.00065678,"MEAN_MOTION_DOT":-2.27e-06,"MEAN_MOTION_DDOT":0.0},{"OBJECT_NAME":"ONEWEB-0345","OBJECT_ID":"2021-083AB","EPOCH":"2026-04-03T05:29:28.185216","MEAN_MOTION":13.13471624,"ECCENTRICITY":0.0001699,"INCLINATION":87.9006,"RA_OF_ASC_NODE":335.1431,"ARG_OF_PERICENTER":69.8643,"MEAN_ANOMALY":290.2669,"EPHEMERIS_TYPE":0,"CLASSIFICATION_TYPE":"U","NORAD_CAT_ID":49211,"ELEMENT_SET_NO":999,"REV_AT_EPOCH":22106,"BSTAR":-0.00052663,"MEAN_MOTION_DOT":-1.8e-06,"MEAN_MOTION_DDOT":0.0},{"OBJECT_NAME":"ONEWEB-0346","OBJECT_ID":"2021-083AC","EPOCH":"2026-04-03T06:08:00.768480","MEAN_MOTION":13.1868763,"ECCENTRICITY":0.0001104,"INCLINATION":87.9229,"RA_OF_ASC_NODE":350.3567,"ARG_OF_PERICENTER":87.525,"MEAN_ANOMALY":272.6009,"EPHEMERIS_TYPE":0,"CLASSIFICATION_TYPE":"U","NORAD_CAT_ID":49212,"ELEMENT_SET_NO":999,"REV_AT_EPOCH":22010,"BSTAR":0.0002716,"MEAN_MOTION_DOT":1.2e-06,"MEAN_MOTION_DDOT":0.0},{"OBJECT_NAME":"ONEWEB-0348","OBJECT_ID":"2021-083AD","EPOCH":"2026-04-03T06:23:38.491008","MEAN_MOTION":13.20772428,"ECCENTRICITY":0.0001201,"INCLINATION":87.9144,"RA_OF_ASC_NODE":289.3984,"ARG_OF_PERICENTER":83.678,"MEAN_ANOMALY":276.449,"EPHEMERIS_TYPE":0,"CLASSIFICATION_TYPE":"U","NORAD_CAT_ID":49213,"ELEMENT_SET_NO":999,"REV_AT_EPOCH":22692,"BSTAR":0.00032631,"MEAN_MOTION_DOT":1.46e-06,"MEAN_MOTION_DDOT":0.0},{"OBJECT_NAME":"ONEWEB-0350","OBJECT_ID":"2021-083AE","EPOCH":"2026-04-03T03:53:11.811264","MEAN_MOTION":13.13472672,"ECCENTRICITY":0.0001598,"INCLINATION":87.9003,"RA_OF_ASC_NODE":335.1552,"ARG_OF_PERICENTER":68.1171,"MEAN_ANOMALY":292.0128,"EPHEMERIS_TYPE":0,"CLASSIFICATION_TYPE":"U","NORAD_CAT_ID":49214,"ELEMENT_SET_NO":999,"REV_AT_EPOCH":22108,"BSTAR":-0.0006152800000000001,"MEAN_MOTION_DOT":-2.12e-06,"MEAN_MOTION_DDOT":0.0},{"OBJECT_NAME":"ONEWEB-0351","OBJECT_ID":"2021-083AF","EPOCH":"2026-04-03T06:14:21.001056","MEAN_MOTION":13.20772797,"ECCENTRICITY":0.0002515,"INCLINATION":87.9145,"RA_OF_ASC_NODE":289.398,"ARG_OF_PERICENTER":78.9405,"MEAN_ANOMALY":281.2011,"EPHEMERIS_TYPE":0,"CLASSIFICATION_TYPE":"U","NORAD_CAT_ID":49215,"ELEMENT_SET_NO":999,"REV_AT_EPOCH":22688,"BSTAR":0.00035024,"MEAN_MOTION_DOT":1.55e-06,"MEAN_MOTION_DDOT":0.0},{"OBJECT_NAME":"ONEWEB-0352","OBJECT_ID":"2021-083AG","EPOCH":"2026-04-03T03:25:08.880960","MEAN_MOTION":13.13468491,"ECCENTRICITY":0.000209,"INCLINATION":87.9,"RA_OF_ASC_NODE":335.1747,"ARG_OF_PERICENTER":76.6778,"MEAN_ANOMALY":283.4584,"EPHEMERIS_TYPE":0,"CLASSIFICATION_TYPE":"U","NORAD_CAT_ID":49216,"ELEMENT_SET_NO":999,"REV_AT_EPOCH":22117,"BSTAR":0.00013713,"MEAN_MOTION_DOT":6.3e-07,"MEAN_MOTION_DDOT":0.0},{"OBJECT_NAME":"ONEWEB-0354","OBJECT_ID":"2021-083AH","EPOCH":"2026-04-03T06:50:54.605472","MEAN_MOTION":13.2077232,"ECCENTRICITY":0.0001478,"INCLINATION":87.914,"RA_OF_ASC_NODE":289.3921,"ARG_OF_PERICENTER":82.8889,"MEAN_ANOMALY":277.2413,"EPHEMERIS_TYPE":0,"CLASSIFICATION_TYPE":"U","NORAD_CAT_ID":49217,"ELEMENT_SET_NO":999,"REV_AT_EPOCH":22692,"BSTAR":6.9337e-05,"MEAN_MOTION_DOT":4.1e-07,"MEAN_MOTION_DDOT":0.0},{"OBJECT_NAME":"ONEWEB-0355","OBJECT_ID":"2021-083AJ","EPOCH":"2026-04-03T04:06:47.219904","MEAN_MOTION":13.13472262,"ECCENTRICITY":0.0001837,"INCLINATION":87.8993,"RA_OF_ASC_NODE":335.1772,"ARG_OF_PERICENTER":74.2807,"MEAN_ANOMALY":285.8525,"EPHEMERIS_TYPE":0,"CLASSIFICATION_TYPE":"U","NORAD_CAT_ID":49218,"ELEMENT_SET_NO":999,"REV_AT_EPOCH":22105,"BSTAR":-0.00023260000000000002,"MEAN_MOTION_DOT":-7.2e-07,"MEAN_MOTION_DDOT":0.0},{"OBJECT_NAME":"ONEWEB-0357","OBJECT_ID":"2021-083AK","EPOCH":"2026-04-02T23:30:00.322560","MEAN_MOTION":13.20772502,"ECCENTRICITY":0.0001847,"INCLINATION":87.9139,"RA_OF_ASC_NODE":289.4479,"ARG_OF_PERICENTER":87.3508,"MEAN_ANOMALY":272.7837,"EPHEMERIS_TYPE":0,"CLASSIFICATION_TYPE":"U","NORAD_CAT_ID":49219,"ELEMENT_SET_NO":999,"REV_AT_EPOCH":22688,"BSTAR":0.00013431,"MEAN_MOTION_DOT":6.8e-07,"MEAN_MOTION_DDOT":0.0},{"OBJECT_NAME":"ONEWEB-0332","OBJECT_ID":"2021-090A","EPOCH":"2026-04-03T02:10:09.409152","MEAN_MOTION":13.14504641,"ECCENTRICITY":0.0001896,"INCLINATION":87.8946,"RA_OF_ASC_NODE":304.699,"ARG_OF_PERICENTER":90.9352,"MEAN_ANOMALY":269.1995,"EPHEMERIS_TYPE":0,"CLASSIFICATION_TYPE":"U","NORAD_CAT_ID":49279,"ELEMENT_SET_NO":999,"REV_AT_EPOCH":21771,"BSTAR":4.5392e-05,"MEAN_MOTION_DOT":3e-07,"MEAN_MOTION_DDOT":0.0},{"OBJECT_NAME":"ONEWEB-0347","OBJECT_ID":"2021-090B","EPOCH":"2026-04-03T06:32:44.271168","MEAN_MOTION":13.2077177,"ECCENTRICITY":0.0001883,"INCLINATION":87.9143,"RA_OF_ASC_NODE":289.3982,"ARG_OF_PERICENTER":97.557,"MEAN_ANOMALY":262.5777,"EPHEMERIS_TYPE":0,"CLASSIFICATION_TYPE":"U","NORAD_CAT_ID":49280,"ELEMENT_SET_NO":999,"REV_AT_EPOCH":22115,"BSTAR":0.00011888,"MEAN_MOTION_DOT":6.1e-07,"MEAN_MOTION_DDOT":0.0},{"OBJECT_NAME":"ONEWEB-0349","OBJECT_ID":"2021-090C","EPOCH":"2026-04-03T00:01:50.125440","MEAN_MOTION":13.20772506,"ECCENTRICITY":0.0001689,"INCLINATION":87.9141,"RA_OF_ASC_NODE":289.4527,"ARG_OF_PERICENTER":89.1228,"MEAN_ANOMALY":271.0099,"EPHEMERIS_TYPE":0,"CLASSIFICATION_TYPE":"U","NORAD_CAT_ID":49281,"ELEMENT_SET_NO":999,"REV_AT_EPOCH":21990,"BSTAR":0.00012898,"MEAN_MOTION_DOT":6.5e-07,"MEAN_MOTION_DDOT":0.0}]