ONEWEB-0341             
1 49207U 21083X   26093.25061125  .00000169  00000+0  39601-3 0  9995
2 49207  87.9231 350.3567 0001807  64.6275 295.5044 13.18689982220119
ONEWEB-0342             
1 49208U 21083Y   26093.04862641  .00000124  00000+0  27393-3 0  9991
2 49208  87.9141 289.4390 0001821  88.7541 271.3801 13.20771470226863
ONEWEB-0343             
1 49209U 21083Z   26093.25887753  .00000123  00000+0  28027-3 0  9990
2 49209  87.9238 350.3501 0002080  67.1214 293.0137 13.18685810220168
ONEWEB-0344             
1 49210U 21083AA  26093.16109110 -.00000227  00000+0 -65678-3 0  9996
2 49210  87.8995 335.1861 0001680  68.1265 292.0042 13.13470197221048
ONEWEB-0345             
1 49211U 21083AB  26093.22879844 -.00000180  00000+0 -52663-3 0  9990
2 49211  87.9006 335.1431 0001699  69.8643 290.2669 13.13471624221067
ONEWEB-0346             
1 49212U 21083AC  26093.25556445  .00000120  00000+0  27160-3 0  9999
2 49212  87.9229 350.3567 0001104  87.5250 272.6009 13.18687630220103
ONEWEB-0348             
1 49213U 21083AD  26093.26641772  .00000146  00000+0  32631-3 0  9996
2 49213  87.9144 289.3984 0001201  83.6780 276.4490 13.20772428226922
ONEWEB-0350             
1 49214U 21083AE  26093.16194226 -.00000212  00000+0 -61528-3 0  9996
2 49214  87.9003 335.1552 0001598  68.1171 292.0128 13.13472672221083
ONEWEB-0351             
1 49215U 21083AF  26093.25996529  .00000155  00000+0  35024-3 0  9999
2 49215  87.9145 289.3980 0002515  78.9405 281.2011 13.20772797226888
ONEWEB-0352             
1 49216U 21083AG  26093.14246390  .00000063  00000+0  13713-3 0  9991
2 49216  87.9000 335.1747 0002090  76.6778 283.4584 13.13468491221177
ONEWEB-0354             
1 49217U 21083AH  26093.28535423  .00000041  00000+0  69337-4 0  9995
2 49217  87.9140 289.3921 0001478  82.8889 277.2413 13.20772320226925
ONEWEB-0355             
1 49218U 21083AJ  26093.17137986 -.00000072  00000+0 -23260-3 0  9996
2 49218  87.8993 335.1772 0001837  74.2807 285.8525 13.13472262221051
ONEWEB-0357             
1 49219U 21083AK  26092.97917040  .00000068  00000+0  13431-3 0  9993
2 49219  87.9139 289.4479 0001847  87.3508 272.7837 13.20772502226889
ONEWEB-0332             
1 49279U 21090A   26093.09038668  .00000030  00000+0  45392-4 0  9992
2 49279  87.8946 304.6990 0001896  90.9352 269.1995 13.14504641217716
ONEWEB-0347             
1 49280U 21090B   26093.27273462  .00000061  00000+0  11888-3 0  9993
2 49280  87.9143 289.3982 0001883  97.5570 262.5777 13.20771770221153
ONEWEB-0349             
1 49281U 21090C   26093.00127460  .00000065  00000+0  12898-3 0  9997
2 49281  87.9141 289.4527 0001689  89.1228 271.0099 13.20772506219909
